{
  "type": "FeatureCollection",
  "features": [
    {
      "type": "Feature",
      "properties": {
        "norad_id": 40730,
        "name": "GPS BIIF-10 (PRN 08)",
        "group": "gps-ops",
        "lat": 54.08812606737097,
        "lon": 8.441470972653162,
        "alt_km": 20050.35199348896,
        "timestamp": "2025-12-15T20:48:54.142548+00:00",
        "meta_object_name": "GPS BIIF-10 (PRN 08)",
        "meta_object_id": "2015-033A",
        "meta_epoch": "2025-12-14T17:52:33.196224",
        "meta_mean_motion": 2.00565563,
        "meta_eccentricity": 0.01110844,
        "meta_inclination": 54.1289,
        "meta_ra_of_asc_node": 274.6903,
        "meta_arg_of_pericenter": 26.8533,
        "meta_mean_anomaly": 333.7312,
        "meta_ephemeris_type": 0,
        "meta_classification_type": "U",
        "meta_norad_cat_id": 40730,
        "meta_element_set_no": 999,
        "meta_rev_at_epoch": 7629,
        "meta_bstar": 0,
        "meta_mean_motion_dot": -6.9e-07,
        "meta_mean_motion_ddot": 0,
        "tle_line1": "1 40730U 15033A   25348.74482866 -.00000069  00000+0  00000+0 0  9997",
        "tle_line2": "2 40730  54.1289 274.6903 0111084  26.8533 333.7312  2.00565563 76296"
      },
      "geometry": {
        "type": "Point",
        "coordinates": [
          8.441470972653162,
          54.08812606737097
        ]
      }
    },
    {
      "type": "Feature",
      "properties": {
        "norad_id": 41019,
        "name": "GPS BIIF-11 (PRN 10)",
        "group": "gps-ops",
        "lat": 37.535025152863234,
        "lon": 68.03064378820667,
        "alt_km": 20471.91024482617,
        "timestamp": "2025-12-15T20:48:54.142559+00:00",
        "meta_object_name": "GPS BIIF-11 (PRN 10)",
        "meta_object_id": "2015-062A",
        "meta_epoch": "2025-12-12T19:26:17.014560",
        "meta_mean_motion": 2.00567164,
        "meta_eccentricity": 0.01108438,
        "meta_inclination": 56.8322,
        "meta_ra_of_asc_node": 37.9995,
        "meta_arg_of_pericenter": 229.9503,
        "meta_mean_anomaly": 129.1214,
        "meta_ephemeris_type": 0,
        "meta_classification_type": "U",
        "meta_norad_cat_id": 41019,
        "meta_element_set_no": 999,
        "meta_rev_at_epoch": 7409,
        "meta_bstar": 0,
        "meta_mean_motion_dot": -9.6e-07,
        "meta_mean_motion_ddot": 0,
        "tle_line1": "1 41019U 15062A   25346.80991915 -.00000096  00000+0  00000+0 0  9995",
        "tle_line2": "2 41019  56.8322  37.9995 0110843 229.9503 129.1214  2.00567164 74093"
      },
      "geometry": {
        "type": "Point",
        "coordinates": [
          68.03064378820667,
          37.535025152863234
        ]
      }
    },
    {
      "type": "Feature",
      "properties": {
        "norad_id": 41328,
        "name": "GPS BIIF-12 (PRN 32)",
        "group": "gps-ops",
        "lat": -9.817157140617997,
        "lon": 89.87505616116842,
        "alt_km": 20243.21521134963,
        "timestamp": "2025-12-15T20:48:54.142570+00:00",
        "meta_object_name": "GPS BIIF-12 (PRN 32)",
        "meta_object_id": "2016-007A",
        "meta_epoch": "2025-12-14T09:19:00.023808",
        "meta_mean_motion": 2.00560678,
        "meta_eccentricity": 0.00922324,
        "meta_inclination": 55.4071,
        "meta_ra_of_asc_node": 96.7915,
        "meta_arg_of_pericenter": 243.6085,
        "meta_mean_anomaly": 115.4276,
        "meta_ephemeris_type": 0,
        "meta_classification_type": "U",
        "meta_norad_cat_id": 41328,
        "meta_element_set_no": 999,
        "meta_rev_at_epoch": 7213,
        "meta_bstar": 0,
        "meta_mean_motion_dot": -2.9e-07,
        "meta_mean_motion_ddot": 0,
        "tle_line1": "1 41328U 16007A   25348.38819472 -.00000029  00000+0  00000+0 0  9996",
        "tle_line2": "2 41328  55.4071  96.7915 0092232 243.6085 115.4276  2.00560678 72138"
      },
      "geometry": {
        "type": "Point",
        "coordinates": [
          89.87505616116842,
          -9.817157140617997
        ]
      }
    },
    {
      "type": "Feature",
      "properties": {
        "norad_id": 43873,
        "name": "GPS BIII-1  (PRN 04)",
        "group": "gps-ops",
        "lat": -46.708866802252885,
        "lon": -33.919369836261914,
        "alt_km": 20120.2506079618,
        "timestamp": "2025-12-15T20:48:54.142582+00:00",
        "meta_object_name": "GPS BIII-1  (PRN 04)",
        "meta_object_id": "2018-109A",
        "meta_epoch": "2025-12-14T18:33:31.413600",
        "meta_mean_motion": 2.00553757,
        "meta_eccentricity": 0.00374,
        "meta_inclination": 55.5684,
        "meta_ra_of_asc_node": 99.4666,
        "meta_arg_of_pericenter": 195.0912,
        "meta_mean_anomaly": 336.5701,
        "meta_ephemeris_type": 0,
        "meta_classification_type": "U",
        "meta_norad_cat_id": 43873,
        "meta_element_set_no": 999,
        "meta_rev_at_epoch": 5137,
        "meta_bstar": 0,
        "meta_mean_motion_dot": -2.6e-07,
        "meta_mean_motion_ddot": 0,
        "tle_line1": "1 43873U 18109A   25348.77328025 -.00000026  00000+0  00000+0 0  9997",
        "tle_line2": "2 43873  55.5684  99.4666 0037400 195.0912 336.5701  2.00553757 51376"
      },
      "geometry": {
        "type": "Point",
        "coordinates": [
          -33.919369836261914,
          -46.708866802252885
        ]
      }
    },
    {
      "type": "Feature",
      "properties": {
        "norad_id": 44506,
        "name": "GPS BIII-2  (PRN 18)",
        "group": "gps-ops",
        "lat": 33.470594389057766,
        "lon": 131.61778695088594,
        "alt_km": 20101.819552348014,
        "timestamp": "2025-12-15T20:48:54.142593+00:00",
        "meta_object_name": "GPS BIII-2  (PRN 18)",
        "meta_object_id": "2019-056A",
        "meta_epoch": "2025-12-14T10:00:28.721376",
        "meta_mean_motion": 2.00566469,
        "meta_eccentricity": 0.00577186,
        "meta_inclination": 55.7208,
        "meta_ra_of_asc_node": 338.4855,
        "meta_arg_of_pericenter": 198.4901,
        "meta_mean_anomaly": 332.9722,
        "meta_ephemeris_type": 0,
        "meta_classification_type": "U",
        "meta_norad_cat_id": 44506,
        "meta_element_set_no": 999,
        "meta_rev_at_epoch": 4636,
        "meta_bstar": 0,
        "meta_mean_motion_dot": -8.9e-07,
        "meta_mean_motion_ddot": 0,
        "tle_line1": "1 44506U 19056A   25348.41699909 -.00000089  00000+0  00000+0 0  9995",
        "tle_line2": "2 44506  55.7208 338.4855 0057718 198.4901 332.9722  2.00566469 46369"
      },
      "geometry": {
        "type": "Point",
        "coordinates": [
          131.61778695088594,
          33.470594389057766
        ]
      }
    },
    {
      "type": "Feature",
      "properties": {
        "norad_id": 45854,
        "name": "GPS BIII-3  (PRN 23)",
        "group": "gps-ops",
        "lat": 55.72974331259232,
        "lon": 111.86666848323554,
        "alt_km": 20259.49825309214,
        "timestamp": "2025-12-15T20:48:54.142604+00:00",
        "meta_object_name": "GPS BIII-3  (PRN 23)",
        "meta_object_id": "2020-041A",
        "meta_epoch": "2025-12-14T06:05:38.632704",
        "meta_mean_motion": 2.00561996,
        "meta_eccentricity": 0.00605369,
        "meta_inclination": 56.5481,
        "meta_ra_of_asc_node": 36.1263,
        "meta_arg_of_pericenter": 203.4842,
        "meta_mean_anomaly": 154.2741,
        "meta_ephemeris_type": 0,
        "meta_classification_type": "U",
        "meta_norad_cat_id": 45854,
        "meta_element_set_no": 999,
        "meta_rev_at_epoch": 4032,
        "meta_bstar": 0,
        "meta_mean_motion_dot": -9.4e-07,
        "meta_mean_motion_ddot": 0,
        "tle_line1": "1 45854U 20041A   25348.25391936 -.00000094  00000+0  00000+0 0  9995",
        "tle_line2": "2 45854  56.5481  36.1263 0060536 203.4842 154.2741  2.00561996 40322"
      },
      "geometry": {
        "type": "Point",
        "coordinates": [
          111.86666848323554,
          55.72974331259232
        ]
      }
    },
    {
      "type": "Feature",
      "properties": {
        "norad_id": 46826,
        "name": "GPS BIII-4  (PRN 14)",
        "group": "gps-ops",
        "lat": 40.44489110818966,
        "lon": -103.53372102670117,
        "alt_km": 20326.016663573195,
        "timestamp": "2025-12-15T20:48:54.142615+00:00",
        "meta_object_name": "GPS BIII-4  (PRN 14)",
        "meta_object_id": "2020-078A",
        "meta_epoch": "2025-12-14T12:30:57.028896",
        "meta_mean_motion": 2.00566857,
        "meta_eccentricity": 0.00647079,
        "meta_inclination": 54.0147,
        "meta_ra_of_asc_node": 218.2686,
        "meta_arg_of_pericenter": 203.3807,
        "meta_mean_anomaly": 318.6031,
        "meta_ephemeris_type": 0,
        "meta_classification_type": "U",
        "meta_norad_cat_id": 46826,
        "meta_element_set_no": 999,
        "meta_rev_at_epoch": 3780,
        "meta_bstar": 0,
        "meta_mean_motion_dot": 4.8e-07,
        "meta_mean_motion_ddot": 0,
        "tle_line1": "1 46826U 20078A   25348.52149339  .00000048  00000+0  00000+0 0  9991",
        "tle_line2": "2 46826  54.0147 218.2686 0064707 203.3807 318.6031  2.00566857 37808"
      },
      "geometry": {
        "type": "Point",
        "coordinates": [
          -103.53372102670117,
          40.44489110818966
        ]
      }
    }
  ]
}